{
  "norad_id": 52674,
  "name": "STARLINK-3936",
  "history": [
    {
      "epoch": "2026-03-28T15:33:21.860352Z",
      "apogee_km": 536.5876852933588,
      "perigee_km": 533.4104079663284,
      "latitude_deg": 5.387399572167744e-05,
      "longitude_deg": 9.469754237120444,
      "height_km": 535.5372749895861,
      "semi_major_axis_km": 6913.136046629843,
      "eccentricity": 0.0002298,
      "inclination_deg": 53.2188,
      "raan_deg": 68.8764,
      "arg_perigee_deg": 77.0148,
      "mean_anomaly_deg": 283.1102,
      "mean_motion_rev_day": 15.10393495
    },
    {
      "epoch": "2026-03-29T04:15:46.537344Z",
      "apogee_km": 536.1463129213189,
      "perigee_km": 534.3488329323591,
      "latitude_deg": 5.901406498812413e-05,
      "longitude_deg": 175.96408523070565,
      "height_km": 536.2194225914865,
      "semi_major_axis_km": 6913.384572926839,
      "eccentricity": 0.00013,
      "inclination_deg": 53.2194,
      "raan_deg": 66.4954,
      "arg_perigee_deg": 94.8042,
      "mean_anomaly_deg": 265.31,
      "mean_motion_rev_day": 15.10312051
    },
    {
      "epoch": "2026-03-29T05:51:04.072896Z",
      "apogee_km": 536.1048946456385,
      "perigee_km": 534.3996380492008,
      "latitude_deg": 1.5080232320959579e-05,
      "longitude_deg": 151.7779625673648,
      "height_km": 536.2070262542096,
      "semi_major_axis_km": 6913.389266347419,
      "eccentricity": 0.00012333,
      "inclination_deg": 53.2193,
      "raan_deg": 66.1976,
      "arg_perigee_deg": 93.907,
      "mean_anomaly_deg": 266.2064,
      "mean_motion_rev_day": 15.10310513
    },
    {
      "epoch": "2026-03-30T13:36:58.076640Z",
      "apogee_km": 536.194809478252,
      "perigee_km": 534.5285180303144,
      "latitude_deg": 2.0253549995570894e-05,
      "longitude_deg": 28.04130961604049,
      "height_km": 536.22461675549,
      "semi_major_axis_km": 6913.498663754283,
      "eccentricity": 0.00012051,
      "inclination_deg": 53.2186,
      "raan_deg": 60.2405,
      "arg_perigee_deg": 87.6846,
      "mean_anomaly_deg": 272.4285,
      "mean_motion_rev_day": 15.10274665
    },
    {
      "epoch": "2026-03-30T15:12:16.063200Z",
      "apogee_km": 536.1811532428555,
      "perigee_km": 534.5571706454139,
      "latitude_deg": 2.1625478581652485e-05,
      "longitude_deg": 3.8529363335468774,
      "height_km": 536.1883281053907,
      "semi_major_axis_km": 6913.506161944134,
      "eccentricity": 0.00011745,
      "inclination_deg": 53.2189,
      "raan_deg": 59.9423,
      "arg_perigee_deg": 84.5213,
      "mean_anomaly_deg": 275.5914,
      "mean_motion_rev_day": 15.10272208
    },
    {
      "epoch": "2026-03-31T15:01:47.514432Z",
      "apogee_km": 536.5972233627572,
      "perigee_km": 534.6185095819728,
      "latitude_deg": 6.3221010700128815e-06,
      "longitude_deg": 1.0312049206762217,
      "height_km": 536.358649207152,
      "semi_major_axis_km": 6913.744866472364,
      "eccentricity": 0.0001431,
      "inclination_deg": 53.2207,
      "raan_deg": 55.4801,
      "arg_perigee_deg": 81.5294,
      "mean_anomaly_deg": 278.5861,
      "mean_motion_rev_day": 15.10193993
    },
    {
      "epoch": "2026-04-01T14:51:16.432416Z",
      "apogee_km": 536.5429891827362,
      "perigee_km": 534.5988545151122,
      "latitude_deg": 2.0025880557258296e-05,
      "longitude_deg": -1.7832208424779197,
      "height_km": 536.5104929555637,
      "semi_major_axis_km": 6913.707921848924,
      "eccentricity": 0.0001406,
      "inclination_deg": 53.2214,
      "raan_deg": 51.0146,
      "arg_perigee_deg": 92.5333,
      "mean_anomaly_deg": 267.5821,
      "mean_motion_rev_day": 15.10206098
    },
    {
      "epoch": "2026-04-02T06:43:55.976736Z",
      "apogee_km": 535.877826357425,
      "perigee_km": 533.8655877829697,
      "latitude_deg": -2.710942460985898e-05,
      "longitude_deg": 116.42160481777253,
      "height_km": 535.8962450100597,
      "semi_major_axis_km": 6913.008707070197,
      "eccentricity": 0.00014554,
      "inclination_deg": 53.2212,
      "raan_deg": 48.0363,
      "arg_perigee_deg": 97.304,
      "mean_anomaly_deg": 262.8118,
      "mean_motion_rev_day": 15.10435228
    },
    {
      "epoch": "2026-04-03T08:07:51.192480Z",
      "apogee_km": 534.5088291712054,
      "perigee_km": 531.9655816910908,
      "latitude_deg": 5.030390023576329e-05,
      "longitude_deg": 89.62791089292149,
      "height_km": 534.5135827523862,
      "semi_major_axis_km": 6911.374205431148,
      "eccentricity": 0.00018399,
      "inclination_deg": 53.2189,
      "raan_deg": 43.2657,
      "arg_perigee_deg": 107.3989,
      "mean_anomaly_deg": 252.7206,
      "mean_motion_rev_day": 15.10971074
    },
    {
      "epoch": "2026-04-04T04:45:35.965152Z",
      "apogee_km": 533.1684854901596,
      "perigee_km": 531.0212000473375,
      "latitude_deg": -2.3092293749557297e-05,
      "longitude_deg": 135.46949610926575,
      "height_km": 533.0045683905769,
      "semi_major_axis_km": 6910.231842768748,
      "eccentricity": 0.00015537,
      "inclination_deg": 53.2194,
      "raan_deg": 39.3911,
      "arg_perigee_deg": 90.6983,
      "mean_anomaly_deg": 269.4188,
      "mean_motion_rev_day": 15.11345768
    },
    {
      "epoch": "2026-04-05T14:00:03.000384Z",
      "apogee_km": 528.3694411176075,
      "perigee_km": 526.276396216259,
      "latitude_deg": -13.137302537687008,
      "longitude_deg": -20.748970157798468,
      "height_km": 531.3403926981816,
      "semi_major_axis_km": 6905.459918666933,
      "eccentricity": 0.00015155,
      "inclination_deg": 53.2184,
      "raan_deg": 33.1433,
      "arg_perigee_deg": 101.9027,
      "mean_anomaly_deg": 241.8196,
      "mean_motion_rev_day": 15.12912631
    },
    {
      "epoch": "2026-04-05T20:00:03.000384Z",
      "apogee_km": 528.1806377970606,
      "perigee_km": 525.5346438506967,
      "latitude_deg": -53.183503447629185,
      "longitude_deg": 161.21592528325826,
      "height_km": 546.6714037442171,
      "semi_major_axis_km": 6904.994640823878,
      "eccentricity": 0.0001916,
      "inclination_deg": 53.2182,
      "raan_deg": 32.0143,
      "arg_perigee_deg": 95.7995,
      "mean_anomaly_deg": 170.1926,
      "mean_motion_rev_day": 15.1306555
    },
    {
      "epoch": "2026-04-06T06:00:02.000160Z",
      "apogee_km": 527.4720346066988,
      "perigee_km": 525.0546659560596,
      "latitude_deg": 13.342196488978093,
      "longitude_deg": 115.73733728518066,
      "height_km": 525.8210862569537,
      "semi_major_axis_km": 6904.400350281379,
      "eccentricity": 0.00017506,
      "inclination_deg": 53.2178,
      "raan_deg": 30.1333,
      "arg_perigee_deg": 77.6092,
      "mean_anomaly_deg": 299.1504,
      "mean_motion_rev_day": 15.13260908
    },
    {
      "epoch": "2026-04-07T14:00:01.999872Z",
      "apogee_km": 526.425825538884,
      "perigee_km": 524.0752220870245,
      "latitude_deg": 53.10341175275175,
      "longitude_deg": 60.29148116159182,
      "height_km": 530.624230745143,
      "semi_major_axis_km": 6903.387523812954,
      "eccentricity": 0.00017025,
      "inclination_deg": 53.2172,
      "raan_deg": 24.1034,
      "arg_perigee_deg": 91.5653,
      "mean_anomaly_deg": 353.6651,
      "mean_motion_rev_day": 15.13593946
    },
    {
      "epoch": "2026-04-07T20:00:00.999360Z",
      "apogee_km": 526.1324315006887,
      "perigee_km": 523.9606899524842,
      "latitude_deg": 6.472498183596938,
      "longitude_deg": -108.29700387735632,
      "height_km": 525.25353786378,
      "semi_major_axis_km": 6903.183560726587,
      "eccentricity": 0.0001573,
      "inclination_deg": 53.2173,
      "raan_deg": 22.973,
      "arg_perigee_deg": 93.7056,
      "mean_anomaly_deg": 274.453,
      "mean_motion_rev_day": 15.13661028
    },
    {
      "epoch": "2026-04-08T16:00:01.999584Z",
      "apogee_km": 525.8430670870785,
      "perigee_km": 523.4974931732904,
      "latitude_deg": -39.25653270665418,
      "longitude_deg": 159.6877599613279,
      "height_km": 538.3882181141053,
      "semi_major_axis_km": 6902.807280130184,
      "eccentricity": 0.0001699,
      "inclination_deg": 53.2168,
      "raan_deg": 19.2032,
      "arg_perigee_deg": 95.7251,
      "mean_anomaly_deg": 136.1351,
      "mean_motion_rev_day": 15.13784797
    }
  ]
}